start=new Date('2022-08-28T00:00:00.000Z').valueOf();
sats=[{"RCS_SIZE":"LARGE","OBJECT_TYPE":"PAYLOAD","CLASSIFICATION_TYPE":"U","GP_ID":"211101034","DECAY_DATE":null,"APOAPSIS":"548.583","MEAN_MOTION_DOT":"-0.00000110","RA_OF_ASC_NODE":"219.1398","ECCENTRICITY":"0.00019770","MEAN_MOTION":"15.06399939","TLE_LINE2":"2 44733  53.0539 219.1398 0001977  65.0109 295.1085 15.06399939154268","EPOCH":"2022-08-27T08:34:15.669120","LAUNCH_DATE":"2019-11-11","ELEMENT_SET_NO":"999","NORAD_CAT_ID":"44733","FILE":"3548622","REV_AT_EPOCH":"15426","EPHEMERIS_TYPE":"0","SITE":"AFETR","TIME_SYSTEM":"UTC","SEMIMAJOR_AXIS":"6925.349","MEAN_ELEMENT_THEORY":"SGP4","CENTER_NAME":"EARTH","BSTAR":"0.00001153500000","OBJECT_NAME":"STARLINK-1028","TLE_LINE1":"1 44733U 19074W   22239.35712580 -.00000110  00000-0  11535-4 0  9993","PERIOD":"95.592","ARG_OF_PERICENTER":"65.0109","OBJECT_ID":"2019-074W","COUNTRY_CODE":"US","MEAN_MOTION_DDOT":"0.0000000000000","REF_FRAME":"TEME","INCLINATION":"53.0539","MEAN_ANOMALY":"295.1085","PERIAPSIS":"545.845"},{"MEAN_MOTION_DDOT":"0.0000000000000","COUNTRY_CODE":"US","PERIOD":"95.592","ARG_OF_PERICENTER":"61.5449","OBJECT_ID":"2019-074X","INCLINATION":"53.0548","REF_FRAME":"TEME","MEAN_ANOMALY":"298.5712","PERIAPSIS":"546.018","CENTER_NAME":"EARTH","BSTAR":"0.00006956600000","TLE_LINE1":"1 44734U 19074X   22239.90264188  .00000755  00000-0  69566-4 0  9992","OBJECT_NAME":"STARLINK-1029","EPOCH":"2022-08-27T21:39:48.258432","TLE_LINE2":"2 44734  53.0548 136.7073 0001702  61.5449 298.5712 15.06405358155445","FILE":"3548882","REV_AT_EPOCH":"15544","EPHEMERIS_TYPE":"0","NORAD_CAT_ID":"44734","ELEMENT_SET_NO":"999","LAUNCH_DATE":"2019-11-11","MEAN_ELEMENT_THEORY":"SGP4","SITE":"AFETR","TIME_SYSTEM":"UTC","SEMIMAJOR_AXIS":"6925.332","CLASSIFICATION_TYPE":"U","GP_ID":"211132794","OBJECT_TYPE":"PAYLOAD","RCS_SIZE":"LARGE","APOAPSIS":"548.376","MEAN_MOTION_DOT":"0.00000755","DECAY_DATE":null,"ECCENTRICITY":"0.00017020","RA_OF_ASC_NODE":"136.7073","MEAN_MOTION":"15.06405358"},{"CENTER_NAME":"EARTH","TLE_LINE1":"1 44735U 19074Y   22239.83077678  .00001387  00000-0  11199-3 0  9991","OBJECT_NAME":"STARLINK-1030","BSTAR":"0.00011199000000","MEAN_MOTION_DDOT":"0.0000000000000","COUNTRY_CODE":"US","PERIOD":"95.592","ARG_OF_PERICENTER":"64.7822","OBJECT_ID":"2019-074Y","MEAN_ANOMALY":"295.3334","PERIAPSIS":"546.075","INCLINATION":"53.0541","REF_FRAME":"TEME","MEAN_MOTION_DOT":"0.00001387","APOAPSIS":"548.301","DECAY_DATE":null,"CLASSIFICATION_TYPE":"U","GP_ID":"211133044","OBJECT_TYPE":"PAYLOAD","RCS_SIZE":"LARGE","MEAN_MOTION":"15.06408307","ECCENTRICITY":"0.00016070","RA_OF_ASC_NODE":"237.0293","EPOCH":"2022-08-27T19:56:19.113792","TLE_LINE2":"2 44735  53.0541 237.0293 0001607  64.7822 295.3334 15.06408307154050","MEAN_ELEMENT_THEORY":"SGP4","TIME_SYSTEM":"UTC","SITE":"AFETR","SEMIMAJOR_AXIS":"6925.323","EPHEMERIS_TYPE":"0","FILE":"3548882","REV_AT_EPOCH":"15405","NORAD_CAT_ID":"44735","ELEMENT_SET_NO":"999","LAUNCH_DATE":"2019-11-11"},{"CENTER_NAME":"EARTH","OBJECT_NAME":"STARLINK-1031","TLE_LINE1":"1 44736U 19074Z   22239.31474022  .00001027  00000-0  87831-4 0  9997","BSTAR":"0.00008783100000","PERIOD":"95.593","OBJECT_ID":"2019-074Z","ARG_OF_PERICENTER":"72.6342","MEAN_MOTION_DDOT":"0.0000000000000","COUNTRY_CODE":"US","MEAN_ANOMALY":"287.4796","PERIAPSIS":"546.295","REF_FRAME":"TEME","INCLINATION":"53.0539","DECAY_DATE":null,"APOAPSIS":"548.186","MEAN_MOTION_DOT":"0.00001027","RCS_SIZE":"LARGE","OBJECT_TYPE":"PAYLOAD","GP_ID":"211100788","CLASSIFICATION_TYPE":"U","MEAN_MOTION":"15.06391216","RA_OF_ASC_NODE":"239.3477","ECCENTRICITY":"0.00013650","TLE_LINE2":"2 44736  53.0539 239.3477 0001365  72.6342 287.4796 15.06391216153988","EPOCH":"2022-08-27T07:33:13.555008","SITE":"AFETR","SEMIMAJOR_AXIS":"6925.375","TIME_SYSTEM":"UTC","MEAN_ELEMENT_THEORY":"SGP4","LAUNCH_DATE":"2019-11-11","ELEMENT_SET_NO":"999","NORAD_CAT_ID":"44736","EPHEMERIS_TYPE":"0","FILE":"3548622","REV_AT_EPOCH":"15398"},{"EPOCH":"2022-08-27T09:24:40.547808","TLE_LINE2":"2 44737  53.0534 238.9945 0001671  70.9761 289.1409 15.06409946153996","MEAN_ELEMENT_THEORY":"SGP4","TIME_SYSTEM":"UTC","SITE":"AFETR","SEMIMAJOR_AXIS":"6925.318","EPHEMERIS_TYPE":"0","FILE":"3548622","REV_AT_EPOCH":"15399","NORAD_CAT_ID":"44737","ELEMENT_SET_NO":"999","LAUNCH_DATE":"2019-11-11","APOAPSIS":"548.340","MEAN_MOTION_DOT":"0.00001062","DECAY_DATE":null,"CLASSIFICATION_TYPE":"U","GP_ID":"211100535","OBJECT_TYPE":"PAYLOAD","RCS_SIZE":"LARGE","MEAN_MOTION":"15.06409946","ECCENTRICITY":"0.00016710","RA_OF_ASC_NODE":"238.9945","COUNTRY_CODE":"US","MEAN_MOTION_DDOT":"0.0000000000000","PERIOD":"95.592","OBJECT_ID":"2019-074AA","ARG_OF_PERICENTER":"70.9761","MEAN_ANOMALY":"289.1409","PERIAPSIS":"546.026","INCLINATION":"53.0534","REF_FRAME":"TEME","CENTER_NAME":"EARTH","TLE_LINE1":"1 44737U 19074AA  22239.39213597  .00001062  00000-0  90182-4 0  9996","OBJECT_NAME":"STARLINK-1032","BSTAR":"0.00009018200000"},{"CENTER_NAME":"EARTH","OBJECT_NAME":"STARLINK-1033","TLE_LINE1":"1 44738U 19074AB  22239.37739260  .00000932  00000-0  81463-4 0  9992","BSTAR":"0.00008146300000","OBJECT_ID":"2019-074AB","PERIOD":"95.593","ARG_OF_PERICENTER":"70.9736","COUNTRY_CODE":"US","MEAN_MOTION_DDOT":"0.0000000000000","MEAN_ANOMALY":"289.1409","PERIAPSIS":"546.237","REF_FRAME":"TEME","INCLINATION":"53.0542","DECAY_DATE":null,"MEAN_MOTION_DOT":"0.00000932","APOAPSIS":"548.227","OBJECT_TYPE":"PAYLOAD","RCS_SIZE":"LARGE","GP_ID":"211101786","CLASSIFICATION_TYPE":"U","MEAN_MOTION":"15.06394030","RA_OF_ASC_NODE":"239.0667","ECCENTRICITY":"0.00014370","TLE_LINE2":"2 44738  53.0542 239.0667 0001437  70.9736 289.1409 15.06394030153987","EPOCH":"2022-08-27T09:03:26.720640","TIME_SYSTEM":"UTC","SITE":"AFETR","SEMIMAJOR_AXIS":"6925.367","MEAN_ELEMENT_THEORY":"SGP4","LAUNCH_DATE":"2019-11-11","ELEMENT_SET_NO":"999","NORAD_CAT_ID":"44738","FILE":"3548622","EPHEMERIS_TYPE":"0","REV_AT_EPOCH":"15398"},{"CLASSIFICATION_TYPE":"U","GP_ID":"211108272","OBJECT_TYPE":"PAYLOAD","RCS_SIZE":"LARGE","APOAPSIS":"516.141","MEAN_MOTION_DOT":"0.00016108","DECAY_DATE":null,"ECCENTRICITY":"0.00014010","RA_OF_ASC_NODE":"223.2890","MEAN_MOTION":"15.16914255","EPOCH":"2022-08-27T10:21:57.265056","TLE_LINE2":"2 44739  52.9936 223.2890 0001401  79.4155 280.6995 15.16914255154329","FILE":"3548647","REV_AT_EPOCH":"15432","EPHEMERIS_TYPE":"0","NORAD_CAT_ID":"44739","ELEMENT_SET_NO":"999","LAUNCH_DATE":"2019-11-11","MEAN_ELEMENT_THEORY":"SGP4","SITE":"AFETR","TIME_SYSTEM":"UTC","SEMIMAJOR_AXIS":"6893.310","CENTER_NAME":"EARTH","BSTAR":"0.00082118000000","TLE_LINE1":"1 44739U 19074AC  22239.43191279  .00016108  00000-0  82118-3 0  9991","OBJECT_NAME":"STARLINK-1034","MEAN_MOTION_DDOT":"0.0000000000000","COUNTRY_CODE":"US","PERIOD":"94.930","ARG_OF_PERICENTER":"79.4155","OBJECT_ID":"2019-074AC","INCLINATION":"52.9936","REF_FRAME":"TEME","PERIAPSIS":"514.209","MEAN_ANOMALY":"280.6995"},{"MEAN_MOTION":"15.06410408","ECCENTRICITY":"0.00017520","RA_OF_ASC_NODE":"237.5272","APOAPSIS":"548.395","MEAN_MOTION_DOT":"0.00001403","DECAY_DATE":null,"GP_ID":"211133788","CLASSIFICATION_TYPE":"U","RCS_SIZE":"LARGE","OBJECT_TYPE":"PAYLOAD","MEAN_ELEMENT_THEORY":"SGP4","TIME_SYSTEM":"UTC","SITE":"AFETR","SEMIMAJOR_AXIS":"6925.317","FILE":"3548882","REV_AT_EPOCH":"15404","EPHEMERIS_TYPE":"0","NORAD_CAT_ID":"44740","ELEMENT_SET_NO":"999","LAUNCH_DATE":"2019-11-11","EPOCH":"2022-08-27T17:17:04.498944","TLE_LINE2":"2 44740  53.0531 237.5272 0001752  66.0128 294.1045 15.06410408154042","TLE_LINE1":"1 44740U 19074AD  22239.72019096  .00001403  00000-0  11303-3 0  9991","OBJECT_NAME":"STARLINK-1035","BSTAR":"0.00011303000000","CENTER_NAME":"EARTH","MEAN_ANOMALY":"294.1045","PERIAPSIS":"545.968","INCLINATION":"53.0531","REF_FRAME":"TEME","MEAN_MOTION_DDOT":"0.0000000000000","COUNTRY_CODE":"US","PERIOD":"95.591","OBJECT_ID":"2019-074AD","ARG_OF_PERICENTER":"66.0128"},{"CENTER_NAME":"EARTH","BSTAR":"0.00009131000000","OBJECT_NAME":"STARLINK-1036","TLE_LINE1":"1 44741U 19074AE  22239.73124342  .00001079  00000-0  91310-4 0  9990","COUNTRY_CODE":"US","MEAN_MOTION_DDOT":"0.0000000000000","PERIOD":"95.592","ARG_OF_PERICENTER":"81.2633","OBJECT_ID":"2019-074AE","INCLINATION":"53.0547","REF_FRAME":"TEME","PERIAPSIS":"546.201","MEAN_ANOMALY":"278.8520","CLASSIFICATION_TYPE":"U","GP_ID":"211134008","OBJECT_TYPE":"PAYLOAD","RCS_SIZE":"LARGE","APOAPSIS":"548.206","MEAN_MOTION_DOT":"0.00001079","DECAY_DATE":null,"ECCENTRICITY":"0.00014470","RA_OF_ASC_NODE":"237.4692","MEAN_MOTION":"15.06403301","TLE_LINE2":"2 44741  53.0547 237.4692 0001447  81.2633 278.8520 15.06403301154047","EPOCH":"2022-08-27T17:32:59.431488","NORAD_CAT_ID":"44741","REV_AT_EPOCH":"15404","FILE":"3548882","EPHEMERIS_TYPE":"0","LAUNCH_DATE":"2019-11-11","ELEMENT_SET_NO":"999","MEAN_ELEMENT_THEORY":"SGP4","TIME_SYSTEM":"UTC","SITE":"AFETR","SEMIMAJOR_AXIS":"6925.338"},{"TLE_LINE1":"1 44742U 19074AF  22239.42791708  .00014402  00000-0  70828-3 0  9997","OBJECT_NAME":"STARLINK-1037","BSTAR":"0.00070828000000","CENTER_NAME":"EARTH","PERIAPSIS":"509.968","MEAN_ANOMALY":"316.7269","REF_FRAME":"TEME","INCLINATION":"52.9940","PERIOD":"94.845","ARG_OF_PERICENTER":"43.3853","OBJECT_ID":"2019-074AF","COUNTRY_CODE":"US","MEAN_MOTION_DDOT":"0.0000000000000","MEAN_MOTION":"15.18262021","RA_OF_ASC_NODE":"217.1875","ECCENTRICITY":"0.00016360","DECAY_DATE":null,"APOAPSIS":"512.222","MEAN_MOTION_DOT":"0.00014402","RCS_SIZE":"LARGE","OBJECT_TYPE":"PAYLOAD","CLASSIFICATION_TYPE":"U","GP_ID":"211101286","TIME_SYSTEM":"UTC","SITE":"AFETR","SEMIMAJOR_AXIS":"6889.230","MEAN_ELEMENT_THEORY":"SGP4","ELEMENT_SET_NO":"999","LAUNCH_DATE":"2019-11-11","REV_AT_EPOCH":"15425","FILE":"3548622","EPHEMERIS_TYPE":"0","NORAD_CAT_ID":"44742","EPOCH":"2022-08-27T10:16:12.035712","TLE_LINE2":"2 44742  52.9940 217.1875 0001636  43.3853 316.7269 15.18262021154254"}];
